O3B MPOWER F1           
1 54755U 22174A   24190.83336767 -.00000027  00000+0  00000+0 0  9999
2 54755   0.0601 351.7255 0006828 114.3611  80.2515  5.00114147 29920
